ONEWEB-0674             
1 55833U 23029AP  26185.83988497 -.00000197  00000+0 -56569-3 0  9990
2 55833  87.8963 286.1987 0001567  98.2928 261.8380 13.14501171161735
ONEWEB-0675             
1 55834U 23029AQ  26186.17581160  .00000089  00000+0  19042-3 0  9998
2 55834  87.9183 301.3942 0002251 100.4633 259.6754 13.19724061161293
ONEWEB-0720             
1 55835U 23029AR  26185.56139194  .00000174  00000+0  40336-3 0  9992
2 55835  87.9185 301.5166 0001958 109.6824 250.4521 13.19726454161134
ONEWEB-0537             
1 56046U 23043A   26185.82589268  .00000065  00000+0  13655-3 0  9996
2 56046  87.9084 225.2682 0002205  91.9778 268.1605 13.16593656161287
ONEWEB-0538             
1 56047U 23043B   26186.04754846 -.00000086  00000+0 -25963-3 0  9998
2 56047  87.9087 225.2267 0002276  98.6231 261.5158 13.16593644161328
ONEWEB-0546             
1 56048U 23043C   26185.80689066  .00000055  00000+0  11104-3 0  9999
2 56048  87.9088 225.2745 0002527  82.4329 277.7089 13.16593895161284
ONEWEB-0547             
1 56049U 23043D   26186.18817236  .00000089  00000+0  18492-3 0  9998
2 56049  87.9245 240.3927 0002153 102.1325 258.0050 13.21826828160607
ONEWEB-0548             
1 56050U 23043E   26186.05941835  .00000026  00000+0  35032-4 0  9990
2 56050  87.9084 225.2205 0001674  87.0836 273.0486 13.16594299161313
ONEWEB-0549             
1 56051U 23043F   26186.18228974  .00000064  00000+0  12353-3 0  9999
2 56051  87.9239 240.3995 0002404 102.4534 257.6870 13.21826921160601
ONEWEB-0550             
1 56052U 23043G   26186.16884236  .00000038  00000+0  59558-4 0  9997
2 56052  87.9243 240.4001 0001851  96.6012 263.5333 13.21826947160604
ONEWEB-0551             
1 56053U 23043H   26185.64841541  .00000167  00000+0  40847-3 0  9995
2 56053  87.8993 255.7476 0002236 106.8388 253.2988 13.15547224158698
ONEWEB-0552             
1 56054U 23043J   26185.86098980  .00000085  00000+0  17314-3 0  9993
2 56054  87.9239 240.4664 0001954 103.0249 257.1103 13.21825603160562
ONEWEB-0553             
1 56055U 23043K   26186.04121426  .00000071  00000+0  15186-3 0  9997
2 56055  87.9083 225.2282 0002207  85.2491 274.8892 13.16593607161325
ONEWEB-0554             
1 56056U 23043L   26185.80056240  .00000031  00000+0  46261-4 0  9997
2 56056  87.9085 225.2848 0001631  86.2767 273.8551 13.16593623161276
ONEWEB-0555             
1 56057U 23043M   26186.06654232  .00000005  00000+0 -19309-4 0  9997
2 56057  87.9082 225.2209 0002411  82.8183 277.3222 13.16593217161314
ONEWEB-0557             
1 56058U 23043N   26186.08079289  .00000057  00000+0  11427-3 0  9991
2 56058  87.9082 225.2278 0001864  57.7619 302.3692 13.16593225161316
