{"fetched_at":"2026-07-05T12:47:17.871Z","source":"https://celestrak.org/NORAD/elements/gp.php?GROUP=oneweb&FORMAT=JSON","constellation":"oneweb","records":[{"OBJECT_NAME":"ONEWEB-0674","OBJECT_ID":"2023-029AP","EPOCH":"2026-07-04T20:09:26.061408","CLASSIFICATION_TYPE":"U","MEAN_MOTION":13.14501171,"ECCENTRICITY":0.00015677,"INCLINATION":87.8963,"RA_OF_ASC_NODE":286.1987,"ARG_OF_PERICENTER":98.2928,"MEAN_ANOMALY":261.838,"EPHEMERIS_TYPE":0,"NORAD_CAT_ID":55833,"ELEMENT_SET_NO":999,"REV_AT_EPOCH":16173,"BSTAR":-0.00056568555,"MEAN_MOTION_DOT":-0.00000197,"MEAN_MOTION_DDOT":0},{"OBJECT_NAME":"ONEWEB-0675","OBJECT_ID":"2023-029AQ","EPOCH":"2026-07-05T04:13:10.122240","CLASSIFICATION_TYPE":"U","MEAN_MOTION":13.19724061,"ECCENTRICITY":0.00022514,"INCLINATION":87.9183,"RA_OF_ASC_NODE":301.3942,"ARG_OF_PERICENTER":100.4633,"MEAN_ANOMALY":259.6754,"EPHEMERIS_TYPE":0,"NORAD_CAT_ID":55834,"ELEMENT_SET_NO":999,"REV_AT_EPOCH":16129,"BSTAR":0.00019041708,"MEAN_MOTION_DOT":8.9e-7,"MEAN_MOTION_DDOT":0},{"OBJECT_NAME":"ONEWEB-0720","OBJECT_ID":"2023-029AR","EPOCH":"2026-07-04T13:28:24.263616","CLASSIFICATION_TYPE":"U","MEAN_MOTION":13.19726454,"ECCENTRICITY":0.00019584,"INCLINATION":87.9185,"RA_OF_ASC_NODE":301.5166,"ARG_OF_PERICENTER":109.6824,"MEAN_ANOMALY":250.4521,"EPHEMERIS_TYPE":0,"NORAD_CAT_ID":55835,"ELEMENT_SET_NO":999,"REV_AT_EPOCH":16113,"BSTAR":0.00040336437,"MEAN_MOTION_DOT":0.00000174,"MEAN_MOTION_DDOT":0},{"OBJECT_NAME":"ONEWEB-0537","OBJECT_ID":"2023-043A","EPOCH":"2026-07-04T19:49:17.127552","CLASSIFICATION_TYPE":"U","MEAN_MOTION":13.16593656,"ECCENTRICITY":0.00022052,"INCLINATION":87.9084,"RA_OF_ASC_NODE":225.2682,"ARG_OF_PERICENTER":91.9778,"MEAN_ANOMALY":268.1605,"EPHEMERIS_TYPE":0,"NORAD_CAT_ID":56046,"ELEMENT_SET_NO":999,"REV_AT_EPOCH":16128,"BSTAR":0.00013654939,"MEAN_MOTION_DOT":6.5e-7,"MEAN_MOTION_DDOT":0},{"OBJECT_NAME":"ONEWEB-0538","OBJECT_ID":"2023-043B","EPOCH":"2026-07-05T01:08:28.186944","CLASSIFICATION_TYPE":"U","MEAN_MOTION":13.16593644,"ECCENTRICITY":0.00022762,"INCLINATION":87.9087,"RA_OF_ASC_NODE":225.2267,"ARG_OF_PERICENTER":98.6231,"MEAN_ANOMALY":261.5158,"EPHEMERIS_TYPE":0,"NORAD_CAT_ID":56047,"ELEMENT_SET_NO":999,"REV_AT_EPOCH":16132,"BSTAR":-0.00025962568,"MEAN_MOTION_DOT":-8.6e-7,"MEAN_MOTION_DDOT":0},{"OBJECT_NAME":"ONEWEB-0546","OBJECT_ID":"2023-043C","EPOCH":"2026-07-04T19:21:55.353024","CLASSIFICATION_TYPE":"U","MEAN_MOTION":13.16593895,"ECCENTRICITY":0.00025274,"INCLINATION":87.9088,"RA_OF_ASC_NODE":225.2745,"ARG_OF_PERICENTER":82.4329,"MEAN_ANOMALY":277.7089,"EPHEMERIS_TYPE":0,"NORAD_CAT_ID":56048,"ELEMENT_SET_NO":999,"REV_AT_EPOCH":16128,"BSTAR":0.00011103527,"MEAN_MOTION_DOT":5.5e-7,"MEAN_MOTION_DDOT":0},{"OBJECT_NAME":"ONEWEB-0547","OBJECT_ID":"2023-043D","EPOCH":"2026-07-05T04:30:58.091904","CLASSIFICATION_TYPE":"U","MEAN_MOTION":13.21826828,"ECCENTRICITY":0.00021532,"INCLINATION":87.9245,"RA_OF_ASC_NODE":240.3927,"ARG_OF_PERICENTER":102.1325,"MEAN_ANOMALY":258.005,"EPHEMERIS_TYPE":0,"NORAD_CAT_ID":56049,"ELEMENT_SET_NO":999,"REV_AT_EPOCH":16060,"BSTAR":0.00018491753,"MEAN_MOTION_DOT":8.9e-7,"MEAN_MOTION_DDOT":0},{"OBJECT_NAME":"ONEWEB-0548","OBJECT_ID":"2023-043E","EPOCH":"2026-07-05T01:25:33.745440","CLASSIFICATION_TYPE":"U","MEAN_MOTION":13.16594299,"ECCENTRICITY":0.00016742,"INCLINATION":87.9084,"RA_OF_ASC_NODE":225.2205,"ARG_OF_PERICENTER":87.0836,"MEAN_ANOMALY":273.0486,"EPHEMERIS_TYPE":0,"NORAD_CAT_ID":56050,"ELEMENT_SET_NO":999,"REV_AT_EPOCH":16131,"BSTAR":0.000035031823,"MEAN_MOTION_DOT":2.6e-7,"MEAN_MOTION_DDOT":0},{"OBJECT_NAME":"ONEWEB-0549","OBJECT_ID":"2023-043F","EPOCH":"2026-07-05T04:22:29.833536","CLASSIFICATION_TYPE":"U","MEAN_MOTION":13.21826921,"ECCENTRICITY":0.00024044,"INCLINATION":87.9239,"RA_OF_ASC_NODE":240.3995,"ARG_OF_PERICENTER":102.4534,"MEAN_ANOMALY":257.687,"EPHEMERIS_TYPE":0,"NORAD_CAT_ID":56051,"ELEMENT_SET_NO":999,"REV_AT_EPOCH":16060,"BSTAR":0.00012352522,"MEAN_MOTION_DOT":6.4e-7,"MEAN_MOTION_DDOT":0},{"OBJECT_NAME":"ONEWEB-0550","OBJECT_ID":"2023-043G","EPOCH":"2026-07-05T04:03:07.979904","CLASSIFICATION_TYPE":"U","MEAN_MOTION":13.21826947,"ECCENTRICITY":0.00018515,"INCLINATION":87.9243,"RA_OF_ASC_NODE":240.4001,"ARG_OF_PERICENTER":96.6012,"MEAN_ANOMALY":263.5333,"EPHEMERIS_TYPE":0,"NORAD_CAT_ID":56052,"ELEMENT_SET_NO":999,"REV_AT_EPOCH":16060,"BSTAR":0.000059558445,"MEAN_MOTION_DOT":3.8e-7,"MEAN_MOTION_DDOT":0},{"OBJECT_NAME":"ONEWEB-0551","OBJECT_ID":"2023-043H","EPOCH":"2026-07-04T15:33:43.091424","CLASSIFICATION_TYPE":"U","MEAN_MOTION":13.15547224,"ECCENTRICITY":0.00022364,"INCLINATION":87.8993,"RA_OF_ASC_NODE":255.7476,"ARG_OF_PERICENTER":106.8388,"MEAN_ANOMALY":253.2988,"EPHEMERIS_TYPE":0,"NORAD_CAT_ID":56053,"ELEMENT_SET_NO":999,"REV_AT_EPOCH":15869,"BSTAR":0.00040847275,"MEAN_MOTION_DOT":0.00000167,"MEAN_MOTION_DDOT":0},{"OBJECT_NAME":"ONEWEB-0552","OBJECT_ID":"2023-043J","EPOCH":"2026-07-04T20:39:49.518720","CLASSIFICATION_TYPE":"U","MEAN_MOTION":13.21825603,"ECCENTRICITY":0.00019543,"INCLINATION":87.9239,"RA_OF_ASC_NODE":240.4664,"ARG_OF_PERICENTER":103.0249,"MEAN_ANOMALY":257.1103,"EPHEMERIS_TYPE":0,"NORAD_CAT_ID":56054,"ELEMENT_SET_NO":999,"REV_AT_EPOCH":16056,"BSTAR":0.00017313506,"MEAN_MOTION_DOT":8.5e-7,"MEAN_MOTION_DDOT":0},{"OBJECT_NAME":"ONEWEB-0553","OBJECT_ID":"2023-043K","EPOCH":"2026-07-05T00:59:20.912064","CLASSIFICATION_TYPE":"U","MEAN_MOTION":13.16593607,"ECCENTRICITY":0.0002207,"INCLINATION":87.9083,"RA_OF_ASC_NODE":225.2282,"ARG_OF_PERICENTER":85.2491,"MEAN_ANOMALY":274.8892,"EPHEMERIS_TYPE":0,"NORAD_CAT_ID":56055,"ELEMENT_SET_NO":999,"REV_AT_EPOCH":16132,"BSTAR":0.00015185738,"MEAN_MOTION_DOT":7.1e-7,"MEAN_MOTION_DDOT":0},{"OBJECT_NAME":"ONEWEB-0554","OBJECT_ID":"2023-043L","EPOCH":"2026-07-04T19:12:48.591360","CLASSIFICATION_TYPE":"U","MEAN_MOTION":13.16593623,"ECCENTRICITY":0.00016315,"INCLINATION":87.9085,"RA_OF_ASC_NODE":225.2848,"ARG_OF_PERICENTER":86.2767,"MEAN_ANOMALY":273.8551,"EPHEMERIS_TYPE":0,"NORAD_CAT_ID":56056,"ELEMENT_SET_NO":999,"REV_AT_EPOCH":16127,"BSTAR":0.000046261475,"MEAN_MOTION_DOT":3.1e-7,"MEAN_MOTION_DDOT":0},{"OBJECT_NAME":"ONEWEB-0555","OBJECT_ID":"2023-043M","EPOCH":"2026-07-05T01:35:49.256448","CLASSIFICATION_TYPE":"U","MEAN_MOTION":13.16593217,"ECCENTRICITY":0.00024112,"INCLINATION":87.9082,"RA_OF_ASC_NODE":225.2209,"ARG_OF_PERICENTER":82.8183,"MEAN_ANOMALY":277.3222,"EPHEMERIS_TYPE":0,"NORAD_CAT_ID":56057,"ELEMENT_SET_NO":999,"REV_AT_EPOCH":16131,"BSTAR":-0.000019309361,"MEAN_MOTION_DOT":5e-8,"MEAN_MOTION_DDOT":0},{"OBJECT_NAME":"ONEWEB-0557","OBJECT_ID":"2023-043N","EPOCH":"2026-07-05T01:56:20.505696","CLASSIFICATION_TYPE":"U","MEAN_MOTION":13.16593225,"ECCENTRICITY":0.00018645,"INCLINATION":87.9082,"RA_OF_ASC_NODE":225.2278,"ARG_OF_PERICENTER":57.7619,"MEAN_ANOMALY":302.3692,"EPHEMERIS_TYPE":0,"NORAD_CAT_ID":56058,"ELEMENT_SET_NO":999,"REV_AT_EPOCH":16131,"BSTAR":0.00011426845,"MEAN_MOTION_DOT":5.7e-7,"MEAN_MOTION_DDOT":0}]}
